GLOBALSTAR M067         
1 32263U 07048A   24135.72769603 -.00000050  00000+0  35038-3 0  9997
2 32263  51.9703 121.8301 0000687 218.7083 312.2707 12.40644650760028
GLOBALSTAR M070         
1 32264U 07048B   24135.60444979 -.00000046  00000+0  32329-3 0  9996
2 32264  51.9749 262.7215 0000369 118.9138 255.4589 12.62292247763335
GLOBALSTAR M066         
1 32265U 07048C   24135.67905315 -.00000093  00000+0  61465-4 0  9996
2 32265  51.9652 124.4733 0000080 320.1899 212.5151 12.62261987765607
GLOBALSTAR M079         
1 37188U 10054A   24135.40049978 -.00000066  00000+0  21220-3 0  9995
2 37188  52.0038 273.7560 0000947 124.3620 270.6409 12.62269704626095
GLOBALSTAR M076         
1 37190U 10054C   24135.68596243 -.00000062  00000+0  23565-3 0  9990
2 37190  52.0030 272.4045 0000820 154.9390 218.9037 12.62278775626457
GLOBALSTAR M077         
1 37191U 10054D   24135.51450537 -.00000063  00000+0  22843-3 0  9997
2 37191  52.0067 229.6706 0000427 142.2085 230.5983 12.62272989626800
